OBJECT_NAME,OBJECT_ID,EPOCH,MEAN_MOTION,ECCENTRICITY,INCLINATION,RA_OF_ASC_NODE,ARG_OF_PERICENTER,MEAN_ANOMALY,EPHEMERIS_TYPE,CLASSIFICATION_TYPE,NORAD_CAT_ID,ELEMENT_SET_NO,REV_AT_EPOCH,BSTAR,MEAN_MOTION_DOT,MEAN_MOTION_DDOT
KUIPER-00570,2026-118E,2026-06-20T08:13:26.947200,15.34502014,.0011177,51.8584,38.3061,194.7553,165.3108,0,U,69271,999,446,-.49771E-3,-.17269E-3,0
KUIPER-00572,2026-118F,2026-06-19T23:54:43.949664,15.37065158,.00070612,51.8674,39.7554,181.2910,178.8059,0,U,69272,999,441,.3528399E-3,.12636E-3,0
KUIPER-00581,2026-118G,2026-06-20T07:49:36.207264,15.36713457,.0008911,51.8658,38.2105,186.5039,173.5833,0,U,69273,999,455,.53684E-3,.19234E-3,0
KUIPER-00584,2026-118H,2026-06-20T08:17:32.272224,15.34331800,.0011427,51.8615,38.3288,199.9411,160.1129,0,U,69274,999,446,.10442E-3,.3148E-4,0
KUIPER-00587,2026-118J,2026-06-20T07:48:33.105888,15.36736677,.0007564,51.8630,38.2024,182.9247,177.1696,0,U,69275,999,446,.31366E-3,.11067E-3,0
KUIPER-00590,2026-118K,2026-06-19T23:37:11.522496,15.37983586,.00040347,51.8693,39.6781,170.0397,190.0671,0,U,69276,999,441,.52416949E-3,.19553E-3,0
KUIPER-00592,2026-118L,2026-06-20T01:06:39.476736,15.38165452,.00034847,51.8715,39.3448,144.9717,215.1500,0,U,69277,999,442,.52666228E-3,.19766E-3,0
KUIPER-00593,2026-118M,2026-06-19T23:34:14.588256,15.38112556,.00037101,51.8718,39.6641,165.9112,194.1979,0,U,69278,999,447,.38980532E-3,.14491E-3,0
KUIPER-00594,2026-118N,2026-06-20T08:42:07.638624,15.38741708,.0000824,51.8726,37.7144,87.3388,272.7693,0,U,69279,999,447,.57937E-3,.22207E-3,0
KUIPER-00595,2026-118P,2026-06-20T08:45:43.929792,15.38576839,.0001318,51.8720,37.7323,157.6610,202.4435,0,U,69280,999,450,.58491E-3,.22302E-3,0
KUIPER-00596,2026-118Q,2026-06-20T08:14:03.603264,15.34753555,.0013269,51.8562,38.3036,203.6283,156.4094,0,U,69281,999,446,.12962E-3,.4061E-4,0
KUIPER-00597,2026-118R,2026-06-19T23:52:16.692096,15.37083947,.00069492,51.8650,39.7423,182.1001,177.9958,0,U,69282,999,441,.36014421E-3,.12914E-3,0
KUIPER-00599,2026-118S,2026-06-20T01:20:52.690560,15.37390286,.0005889,51.8695,39.4088,176.7564,183.3462,0,U,69283,999,442,.56599455E-3,.20745E-3,0
KUIPER-00600,2026-118T,2026-06-20T07:47:29.125824,15.36735223,.0008725,51.8641,38.1992,184.4134,175.6777,0,U,69284,999,446,.48317E-3,.17279E-3,0
KUIPER-00601,2026-118U,2026-06-19T23:41:31.354080,15.37649370,.00049168,51.8707,39.6979,164.4329,195.6810,0,U,69285,999,441,.33454289E-3,.12189E-3,0
KUIPER-00602,2026-118V,2026-06-19T23:31:37.363584,15.38243019,.00027717,51.8708,39.6534,157.5811,202.5297,0,U,69286,999,441,.37798205E-3,.14099E-3,0
KUIPER-00603,2026-118W,2026-06-19T23:43:32.509344,15.37640463,.00052705,51.8677,39.7060,171.6633,188.4442,0,U,69287,999,441,.47587767E-3,.17514E-3,0
KUIPER-00605,2026-118X,2026-06-19T23:53:10.395744,15.37104765,.0007383,51.8662,39.7473,177.8626,182.2393,0,U,69288,999,441,.37935437E-3,.13636E-3,0
KUIPER-00606,2026-118Y,2026-06-20T01:13:06.705984,15.37760304,.00045359,51.8700,39.3740,165.0419,195.0703,0,U,69289,999,442,.54625546E-3,.20247E-3,0
KUIPER-00607,2026-118Z,2026-06-19T23:45:34.996032,15.37506633,.00059682,51.8684,39.7153,172.5107,187.5970,0,U,69290,999,441,.46672923E-3,.17095E-3,0
KUIPER-00608,2026-118AA,2026-06-20T08:03:50.419872,15.35280130,.0008361,51.8610,38.2683,187.5435,172.5426,0,U,69291,999,446,.48004E-3,.16365E-3,0
KUIPER-00610,2026-118AB,2026-06-19T23:28:30.226368,15.38255226,.000207,51.8728,39.6367,158.5120,201.5954,0,U,69292,999,441,.58454531E-3,.22052E-3,0
KUIPER-00613,2026-118AC,2026-06-20T08:12:33.502752,15.34356049,.0010202,51.8637,38.3109,194.3154,165.7543,0,U,69293,999,446,.35506E-3,.11646E-3,0
KUIPER-00618,2026-118AD,2026-06-20T08:42:52.971840,15.38729386,.0001548,51.8728,37.7160,102.5975,257.5185,0,U,69294,999,447,.60597E-3,.23239E-3,0
KUIPER-00620,2026-118AE,2026-06-20T01:00:59.887584,15.38383662,.00026093,51.8724,39.3179,131.0092,229.1121,0,U,69295,999,442,.53915483E-3,.20391E-3,0
STARLINK-37501,2026-119A,2026-06-20T10:00:01.998720,15.49121588,.000164,97.2855,197.2763,90.1202,114.4522,0,U,69296,999,440,.20314E-2,.111709E-2,0
STARLINK-37496,2026-119B,2026-06-20T10:00:01.998720,15.51408288,.000156,97.2916,197.2795,81.6475,129.7554,0,U,69297,999,440,-.13724E-1,-.745818E-2,0
STARLINK-37519,2026-119C,2026-06-20T10:00:01.998720,15.49081549,.0001222,97.2854,197.2844,55.3802,165.0099,0,U,69298,999,440,.20425E-2,.112171E-2,0
STARLINK-37455,2026-119D,2026-06-20T10:00:01.998720,15.49122227,.0001575,97.2858,197.1926,99.3641,269.0832,0,U,69299,999,440,.21586E-2,.118818E-2,0
STARLINK-37456,2026-119E,2026-06-20T10:00:01.998720,15.49220536,.0001584,97.2919,197.2777,74.8390,131.7005,0,U,69300,999,440,-.85689E-3,-.46473E-3,0
