KUIPER-00570            
1 69271U 26118E   26171.34267300 -.00017269  00000+0 -49771-3 0  9992
2 69271  51.8584  38.3061 0011177 194.7553 165.3108 15.34502014  4463
KUIPER-00572            
1 69272U 26118F   26170.99634201  .00012636  00000+0  35284-3 0  9996
2 69272  51.8674  39.7554 0007061 181.2910 178.8059 15.37065158  4416
KUIPER-00581            
1 69273U 26118G   26171.32611351  .00019234  00000+0  53684-3 0  9991
2 69273  51.8658  38.2105 0008911 186.5039 173.5833 15.36713457  4558
KUIPER-00584            
1 69274U 26118H   26171.34551241  .00003148  00000+0  10442-3 0  9997
2 69274  51.8615  38.3288 0011427 199.9411 160.1129 15.34331800  4469
KUIPER-00587            
1 69275U 26118J   26171.32538317  .00011067  00000+0  31366-3 0  9992
2 69275  51.8630  38.2024 0007564 182.9247 177.1696 15.36736677  4460
KUIPER-00590            
1 69276U 26118K   26170.98416114  .00019553  00000+0  52417-3 0  9992
2 69276  51.8693  39.6781 0004034 170.0397 190.0671 15.37983586  4414
KUIPER-00592            
1 69277U 26118L   26171.04629024  .00019766  00000+0  52666-3 0  9999
2 69277  51.8715  39.3448 0003484 144.9717 215.1500 15.38165452  4427
KUIPER-00593            
1 69278U 26118M   26170.98211329  .00014491  00000+0  38981-3 0  9991
2 69278  51.8718  39.6641 0003710 165.9112 194.1979 15.38112556  4471
KUIPER-00594            
1 69279U 26118N   26171.36258841  .00022207  00000+0  57937-3 0  9991
2 69279  51.8726  37.7144 0000824  87.3388 272.7693 15.38741708  4476
KUIPER-00595            
1 69280U 26118P   26171.36509178  .00022302  00000+0  58491-3 0  9997
2 69280  51.8720  37.7323 0001318 157.6610 202.4435 15.38576839  4508
KUIPER-00596            
1 69281U 26118Q   26171.34309726  .00004061  00000+0  12962-3 0  9998
2 69281  51.8562  38.3036 0013269 203.6283 156.4094 15.34753555  4469
KUIPER-00597            
1 69282U 26118R   26170.99463764  .00012914  00000+0  36014-3 0  9992
2 69282  51.8650  39.7423 0006949 182.1001 177.9958 15.37083947  4415
KUIPER-00599            
1 69283U 26118S   26171.05616540  .00020745  00000+0  56599-3 0  9994
2 69283  51.8695  39.4088 0005889 176.7564 183.3462 15.37390286  4423
KUIPER-00600            
1 69284U 26118T   26171.32464266  .00017279  00000+0  48317-3 0  9998
2 69284  51.8641  38.1992 0008725 184.4134 175.6777 15.36735223  4466
KUIPER-00601            
1 69285U 26118U   26170.98716845  .00012189  00000+0  33454-3 0  9994
2 69285  51.8707  39.6979 0004916 164.4329 195.6810 15.37649370  4416
KUIPER-00602            
1 69286U 26118V   26170.98029356  .00014099  00000+0  37798-3 0  9996
2 69286  51.8708  39.6534 0002771 157.5811 202.5297 15.38243019  4419
KUIPER-00603            
1 69287U 26118W   26170.98857071  .00017514  00000+0  47588-3 0  9993
2 69287  51.8677  39.7060 0005270 171.6633 188.4442 15.37640463  4413
KUIPER-00605            
1 69288U 26118X   26170.99525921  .00013636  00000+0  37935-3 0  9997
2 69288  51.8662  39.7473 0007383 177.8626 182.2393 15.37104765  4410
KUIPER-00606            
1 69289U 26118Y   26171.05077206  .00020247  00000+0  54626-3 0  9996
2 69289  51.8700  39.3740 0004535 165.0419 195.0703 15.37760304  4427
KUIPER-00607            
1 69290U 26118Z   26170.98998838  .00017095  00000+0  46673-3 0  9992
2 69290  51.8684  39.7153 0005968 172.5107 187.5970 15.37506633  4414
KUIPER-00608            
1 69291U 26118AA  26171.33600023  .00016365  00000+0  48004-3 0  9998
2 69291  51.8610  38.2683 0008361 187.5435 172.5426 15.35280130  4460
KUIPER-00610            
1 69292U 26118AB  26170.97812762  .00022052  00000+0  58455-3 0  9994
2 69292  51.8728  39.6367 0002070 158.5120 201.5954 15.38255226  4410
KUIPER-00613            
1 69293U 26118AC  26171.34205443  .00011646  00000+0  35506-3 0  9998
2 69293  51.8637  38.3109 0010202 194.3154 165.7543 15.34356049  4462
KUIPER-00618            
1 69294U 26118AD  26171.36311310  .00023239  00000+0  60597-3 0  9991
2 69294  51.8728  37.7160 0001548 102.5975 257.5185 15.38729386  4474
KUIPER-00620            
1 69295U 26118AE  26171.04235981  .00020391  00000+0  53915-3 0  9998
2 69295  51.8724  39.3179 0002609 131.0092 229.1121 15.38383662  4428
STARLINK-37501          
1 69296U 26119A   26171.41668980  .00111709  00000+0  20314-2 0  9990
2 69296  97.2855 197.2763 0001640  90.1202 114.4522 15.49121588  4401
STARLINK-37496          
1 69297U 26119B   26171.41668980 -.00745818  00000+0 -13724-1 0  9993
2 69297  97.2916 197.2795 0001560  81.6475 129.7554 15.51408288  4405
STARLINK-37519          
1 69298U 26119C   26171.41668980  .00112171  00000+0  20425-2 0  9999
2 69298  97.2854 197.2844 0001222  55.3802 165.0099 15.49081549  4400
STARLINK-37455          
1 69299U 26119D   26171.41668980  .00118818  00000+0  21586-2 0  9993
2 69299  97.2858 197.1926 0001575  99.3641 269.0832 15.49122227  4404
STARLINK-37456          
1 69300U 26119E   26171.41668980 -.00046473  00000+0 -85689-3 0  9990
2 69300  97.2919 197.2777 0001584  74.8390 131.7005 15.49220536  4408
